STARLINK-3625           
1 51777U 22017K   23343.61659535  .00001359  00000+0  10349-3 0  9991
2 51777  53.2189  65.0322 0001720  63.6368 296.4800 15.08837783 98643
STARLINK-3615           
1 51778U 22017L   23343.62023134  .00006644  00000+0  43538-3 0  9991
2 51778  53.2188  54.9192 0001407 105.8763 254.2384 15.08817174 98602
STARLINK-3611           
1 51779U 22017M   23343.61292179  .00000890  00000+0  74012-4 0  9997
2 51779  53.2185  65.1271 0001544  79.6501 280.4666 15.08840397 98610
STARLINK-3617           
1 51780U 22017N   23343.46475986  .00003949  00000+0  26610-3 0  9999
2 51780  53.2174  65.7323 0001579  69.4959 290.6203 15.08838870 98440
STARLINK-3580           
1 51781U 22017P   23343.53467502  .00000016  00000+0  19076-4 0  9994
2 51781  53.2181  65.3865 0001399  90.4866 269.6286 15.08837042 98455
STARLINK-3616           
1 51782U 22017Q   23343.68927727  .00000575  00000+0  54214-4 0  9994
2 51782  53.2188  74.7443 0001499  93.5518 266.5646 15.08837451 98245
STARLINK-3628           
1 51783U 22017R   23343.60555967  .00003953  00000+0  26629-3 0  9991
2 51783  53.2174  65.1571 0001399  89.4362 270.6791 15.08841524100109
STARLINK-3632           
1 51784U 22017S   23343.68463736  .00000300  00000+0  36922-4 0  9993
2 51784  53.2179  74.7525 0001291  95.5338 264.5802 15.08838333 98332
STARLINK-3646           
1 51785U 22017T   23343.46203094  .00000464  00000+0  47231-4 0  9995
2 51785  53.2172  65.7229 0001241 103.7920 256.3210 15.08838530 98444
STARLINK-3638           
1 51786U 22017U   23343.67727688  .00000232  00000+0  32634-4 0  9993
2 51786  53.2183  74.7867 0001270  90.4930 269.6208 15.08841282 98330
STARLINK-3619           
1 51787U 22017V   23343.55952102 -.00000170  00000+0  74405-5 0  9997
2 51787  53.2186  75.3144 0001361  92.9293 267.1855 15.08831689 98318
STARLINK-3641           
1 51788U 22017W   23343.53375573  .00000344  00000+0  39717-4 0  9995
2 51788  53.2187  75.4346 0001242 102.1556 257.9575 15.08828178 99955
STARLINK-3639           
1 51789U 22017X   23343.54847596  .00001272  00000+0  98021-4 0  9990
2 51789  53.2175  75.3652 0001531  87.7141 272.4026 15.08831840 99965
STARLINK-3631           
1 51790U 22017Y   23343.53008045  .00000056  00000+0  21590-4 0  9995
2 51790  53.2192  75.4494 0001638 113.5319 246.5846 15.08837924100003
STARLINK-3602           
1 51791U 22017Z   23343.54111628  .00001359  00000+0  10347-3 0  9993
2 51791  53.2166  75.3967 0001330 107.7614 252.3523 15.08843342 99950
STARLINK-3626           
1 51792U 22017AA  23343.65519982  .00000018  00000+0  19204-4 0  9994
2 51792  53.2174  74.8867 0001385  93.1130 267.0021 15.08838718100022
STARLINK-3633           
1 51793U 22017AB  23343.66991358  .00000222  00000+0  32026-4 0  9991
2 51793  53.2173  74.8198 0001273 110.5529 249.5600 15.08842412100025
STARLINK-3573           
1 51794U 22017AC  23343.51535803  .00000731  00000+0  64040-4 0  9991
2 51794  53.2181  75.5157 0001475  99.2037 260.9122 15.08840085 99958
STARLINK-3586           
1 51795U 22017AD  23343.52736697  .00000158  00000+0  28006-4 0  9992
2 51795  53.2180  75.5483 0001344  82.8174 277.2971 15.08841092 99957
STARLINK-3630           
1 51796U 22017AE  23343.50432334 -.00000121  00000+0  10511-4 0  9995
2 51796  53.2196  75.5742 0001309  98.3360 261.7780 15.08841887 99940
STARLINK-3627           
1 51797U 22017AF  23343.44686924  .00011549  00000+0  46883-3 0  9990
2 51797  53.1589  46.9325 0004563  51.4871 308.6536 15.25048571100397
STARLINK-3634           
1 51798U 22017AG  23343.50063934  .00000609  00000+0  56371-4 0  9997
2 51798  53.2182  75.5851 0001232  94.1693 265.9440 15.08838040 99997
STARLINK-3637           
1 51799U 22017AH  23343.44543923  .00000487  00000+0  48686-4 0  9996
2 51799  53.2179  75.8290 0001425 105.1540 254.9610 15.08838577 99949
STARLINK-3600           
1 51800U 22017AJ  23343.53770547  .00742571  31548-3  71886-3 0  9992
2 51800  53.1983   4.7938 0008760  44.0280  88.4601 16.10976727100975
STARLINK-3592           
1 51801U 22017AK  23343.70672162  .00000569  00000+0  53857-4 0  9994
2 51801  53.2184  74.6574 0001368 106.1534 253.9608 15.08837649 99980
STARLINK-3557           
1 51802U 22017AL  23343.52639752 -.00000319  00000+0 -19752-5 0  9995
2 51802  53.2173  75.4575 0001415  83.0622 277.0531 15.08837732 99955
STARLINK-3544           
1 51803U 22017AM  23343.56319772  .00001275  00000+0  98171-4 0  9998
2 51803  53.2169  75.3015 0001399  86.3398 273.7754 15.08840862 99954
STARLINK-3601           
1 51804U 22017AN  23343.70855851  .00000730  00000+0  63964-4 0  9995
2 51804  53.2183  54.6471 0001336  94.9072 265.2072 15.08839892100214
STARLINK-3605           
1 51805U 22017AP  23343.51353056  .00000217  00000+0  31740-4 0  9992
2 51805  53.2179  55.5997 0001299  98.7389 261.3751 15.08835731100279
STARLINK-3581           
1 51806U 22017AQ  23343.65243871  .00000199  00000+0  30586-4 0  9997
2 51806  53.2186  64.8998 0001445  96.4348 263.6809 15.08840425100012
STARLINK-3606           
1 51807U 22017AR  23343.46107928  .00000406  00000+0  43624-4 0  9997
2 51807  53.2172  65.7598 0001258  87.8621 272.2515 15.08836941100135
STARLINK-3609           
1 51808U 22017AS  23343.51259685 -.00000698  00000+0 -25744-4 0  9990
2 51808  53.2184  65.5283 0001435  75.9076 284.2076 15.08842383100094
STARLINK-3607           
1 51809U 22017AT  23343.52459601  .00000747  00000+0  64999-4 0  9990
2 51809  53.2182  65.4844 0001170  89.9899 270.1228 15.08839934100090
STARLINK-3613           
1 51810U 22017AU  23343.62394583  .00002198  00000+0  15618-3 0  9995
2 51810  53.2175  55.2483 0001634  91.6136 268.5043 15.08836034100127
STARLINK-3569           
1 51811U 22017AV  23343.51627734  .00000055  00000+0  21565-4 0  9990
2 51811  53.2187  65.5133 0001480 106.6413 253.4741 15.08838113 99991
STARLINK-3610           
1 51812U 22017AW  23343.52455997  .00001868  00000+0  13539-3 0  9996
2 51812  53.2184  55.4751 0001355  92.9421 267.1726 15.08840885100111
STARLINK-3552           
1 51813U 22017AX  23343.43992398  .00000142  00000+0  26995-4 0  9993
2 51813  53.2181  55.8802 0001320  99.1108 261.0033 15.08835763100105
STARLINK-3599           
1 51814U 22017AY  23343.58344021  .00000625  00000+0  57364-4 0  9994
2 51814  53.2184  55.2059 0001342  82.4107 277.7037 15.08839830100247
STARLINK-3604           
1 51815U 22017AZ  23343.52088081  .00001315  00000+0  10066-3 0  9994
2 51815  53.2185  55.4916 0001258  80.5995 279.5139 15.08841590100231
STARLINK-3603           
1 51816U 22017BA  23343.60282459  .00002070  00000+0  14810-3 0  9999
2 51816  53.2176  55.3647 0001550  78.1306 281.9860 15.08844009100175
STARLINK-3542           
1 51852U 22022A   23343.74075936  .00005547  00000+0  36657-3 0  9995
2 51852  53.2165 104.5012 0001386 109.8294 250.2848 15.08818488 97825
STARLINK-3539           
1 51853U 22022B   23343.50887727 -.00000207  00000+0  50972-5 0  9996
2 51853  53.2180 105.1587 0001213  58.5519 301.5592 15.08833449 98995
STARLINK-3541           
1 51854U 22022C   23343.53835811  .00000216  00000+0  31630-4 0  9995
2 51854  53.2173 105.4136 0001319  96.5053 263.6089 15.08840675 99059
STARLINK-3545           
1 51855U 22022D   23343.52363131  .00000017  00000+0  19147-4 0  9994
2 51855  53.2176 105.3999 0001628 117.5126 242.6031 15.08837275 99008
STARLINK-3568           
1 51856U 22022E   23343.73435805  .00000365  00000+0  41050-4 0  9990
2 51856  53.2165 104.5444 0001382  90.1481 269.9670 15.08839460 99111
STARLINK-3571           
1 51857U 22022F   23343.52460127  .00000072  00000+0  22617-4 0  9996
2 51857  53.2185 105.4867 0001238  95.0609 265.0524 15.08835515 99054
STARLINK-3563           
1 51858U 22022G   23343.52731955  .00000582  00000+0  54688-4 0  9996
2 51858  53.2161 105.4595 0001558 104.8927 255.2238 15.08838781 99055
STARLINK-3560           
1 51859U 22022H   23343.74263547 -.00000020  00000+0  16859-4 0  9994
2 51859  53.2189  94.5090 0001325  96.8197 263.2946 15.08837484 99228
STARLINK-3559           
1 51860U 22022J   23343.55032232 -.00001598  00000+0 -82347-4 0  9997
2 51860  53.2182  95.3607 0001360  94.6986 265.4162 15.08839893 99159
STARLINK-3562           
1 51861U 22022K   23343.73431636  .00000182  00000+0  29500-4 0  9997
2 51861  53.2180  94.5290 0001421  86.6850 273.4305 15.08839253 99097
STARLINK-3508           
1 51862U 22022L   23343.54663992  .00002192  00000+0  15583-3 0  9997
2 51862  53.2189  95.3775 0001343  94.5561 265.5585 15.08823668 99202
STARLINK-3555           
1 51863U 22022M   23343.52823723  .00000083  00000+0  23317-4 0  9998
2 51863  53.2194  95.4593 0001189  89.9137 270.1992 15.08839361 99147
STARLINK-3548           
1 51864U 22022N   23343.53190634  .00000003  00000+0  18284-4 0  9997
2 51864  53.2179  95.3609 0001881 122.6001 237.5173 15.08838122 99199
STARLINK-3503           
1 51865U 22022P   23343.52087708 -.00000004  00000+0  17864-4 0  9999
2 51865  53.2164  95.4898 0001310  95.6361 264.4781 15.08840561 99149
STARLINK-3553           
1 51866U 22022Q   23343.78308983  .00002630  00000+0  18324-3 0  9996
2 51866  53.2160  94.1695 0001199  80.1354 279.9774 15.08838819 99183
STARLINK-3590           
1 51867U 22022R   23343.71591319  .00001243  00000+0  96162-4 0  9993
2 51867  53.2160  94.6144 0001370 103.6432 256.4713 15.08844243 99177
STARLINK-3578           
1 51868U 22022S   23343.52455823  .00000166  00000+0  28533-4 0  9992
2 51868  53.2176  95.4741 0001307  87.1670 272.9471 15.08838796 99144
STARLINK-3588           
1 51869U 22022T   23343.50616126  .00000445  00000+0  46024-4 0  9991
2 51869  53.2177  95.5563 0001500  96.7399 263.3764 15.08837011 99146
STARLINK-3591           
1 51870U 22022U   23343.51351744  .00000400  00000+0  43204-4 0  9994
2 51870  53.2183  95.5227 0001457  93.7943 266.3216 15.08841112 99192
